[{"OBJECT_NAME":"DUPLEX","OBJECT_ID":"1998-067XS","EPOCH":"2026-03-17T22:23:01.448160","MEAN_MOTION":15.5675275,"ECCENTRICITY":0.00029165,"INCLINATION":51.63,"RA_OF_ASC_NODE":28.2024,"ARG_OF_PERICENTER":147.7236,"MEAN_ANOMALY":212.3935,"EPHEMERIS_TYPE":0,"CLASSIFICATION_TYPE":"U","NORAD_CAT_ID":66906,"ELEMENT_SET_NO":999,"REV_AT_EPOCH":1641,"BSTAR":0.00033548582,"MEAN_MOTION_DOT":0.00024045,"MEAN_MOTION_DDOT":0},{"OBJECT_NAME":"ISS OBJECT XT","OBJECT_ID":"1998-067XT","EPOCH":"2026-03-18T02:35:58.242336","MEAN_MOTION":15.72107218,"ECCENTRICITY":0.00050103,"INCLINATION":51.6256,"RA_OF_ASC_NODE":22.6028,"ARG_OF_PERICENTER":136.005,"MEAN_ANOMALY":224.1347,"EPHEMERIS_TYPE":0,"CLASSIFICATION_TYPE":"U","NORAD_CAT_ID":66907,"ELEMENT_SET_NO":999,"REV_AT_EPOCH":1650,"BSTAR":0.0010638676,"MEAN_MOTION_DOT":0.00144711,"MEAN_MOTION_DDOT":0},{"OBJECT_NAME":"ISS OBJECT XU","OBJECT_ID":"1998-067XU","EPOCH":"2026-03-18T02:32:19.515552","MEAN_MOTION":15.72262943,"ECCENTRICITY":0.00052282,"INCLINATION":51.6254,"RA_OF_ASC_NODE":22.5822,"ARG_OF_PERICENTER":136.7142,"MEAN_ANOMALY":223.4268,"EPHEMERIS_TYPE":0,"CLASSIFICATION_TYPE":"U","NORAD_CAT_ID":66908,"ELEMENT_SET_NO":999,"REV_AT_EPOCH":1650,"BSTAR":0.0011000467,"MEAN_MOTION_DOT":0.00150765,"MEAN_MOTION_DDOT":0},{"OBJECT_NAME":"SILVERSAT","OBJECT_ID":"1998-067XV","EPOCH":"2026-03-18T02:08:50.555328","MEAN_MOTION":15.75954146,"ECCENTRICITY":0.00056001,"INCLINATION":51.6243,"RA_OF_ASC_NODE":21.7188,"ARG_OF_PERICENTER":137.5324,"MEAN_ANOMALY":222.611,"EPHEMERIS_TYPE":0,"CLASSIFICATION_TYPE":"U","NORAD_CAT_ID":66909,"ELEMENT_SET_NO":999,"REV_AT_EPOCH":1651,"BSTAR":0.0011692677,"MEAN_MOTION_DOT":0.00188918,"MEAN_MOTION_DDOT":0},{"OBJECT_NAME":"ISS OBJECT XW","OBJECT_ID":"1998-067XW","EPOCH":"2026-03-18T01:03:09.256032","MEAN_MOTION":15.71148756,"ECCENTRICITY":0.00055983,"INCLINATION":51.6248,"RA_OF_ASC_NODE":22.9144,"ARG_OF_PERICENTER":137.0995,"MEAN_ANOMALY":223.0441,"EPHEMERIS_TYPE":0,"CLASSIFICATION_TYPE":"U","NORAD_CAT_ID":66910,"ELEMENT_SET_NO":999,"REV_AT_EPOCH":1649,"BSTAR":0.0009734956,"MEAN_MOTION_DOT":0.00126852,"MEAN_MOTION_DDOT":0},{"OBJECT_NAME":"ISS OBJECT XX","OBJECT_ID":"1998-067XX","EPOCH":"2026-03-18T01:36:14.226912","MEAN_MOTION":15.80205228,"ECCENTRICITY":0.00072437,"INCLINATION":51.6212,"RA_OF_ASC_NODE":20.7915,"ARG_OF_PERICENTER":141.9689,"MEAN_ANOMALY":218.1825,"EPHEMERIS_TYPE":0,"CLASSIFICATION_TYPE":"U","NORAD_CAT_ID":66911,"ELEMENT_SET_NO":999,"REV_AT_EPOCH":1651,"BSTAR":0.0012795822,"MEAN_MOTION_DOT":0.00252305,"MEAN_MOTION_DDOT":0},{"OBJECT_NAME":"ISS OBJECT XY","OBJECT_ID":"1998-067XY","EPOCH":"2026-03-18T00:18:43.170624","MEAN_MOTION":15.65332059,"ECCENTRICITY":0.00036282,"INCLINATION":51.6278,"RA_OF_ASC_NODE":24.9814,"ARG_OF_PERICENTER":139.1687,"MEAN_ANOMALY":220.958,"EPHEMERIS_TYPE":0,"CLASSIFICATION_TYPE":"U","NORAD_CAT_ID":66912,"ELEMENT_SET_NO":999,"REV_AT_EPOCH":1645,"BSTAR":0.00077195145,"MEAN_MOTION_DOT":0.00078591,"MEAN_MOTION_DDOT":0},{"OBJECT_NAME":"KNACKSAT-2","OBJECT_ID":"1998-067XZ","EPOCH":"2026-03-18T06:58:10.882272","MEAN_MOTION":15.52537179,"ECCENTRICITY":0.00096772,"INCLINATION":51.6316,"RA_OF_ASC_NODE":29.0899,"ARG_OF_PERICENTER":216.1335,"MEAN_ANOMALY":143.9002,"EPHEMERIS_TYPE":0,"CLASSIFICATION_TYPE":"U","NORAD_CAT_ID":67683,"ELEMENT_SET_NO":999,"REV_AT_EPOCH":612,"BSTAR":0.00050261138,"MEAN_MOTION_DOT":0.0003111,"MEAN_MOTION_DDOT":0},{"OBJECT_NAME":"GXIBA-1","OBJECT_ID":"1998-067YA","EPOCH":"2026-03-18T02:51:07.673184","MEAN_MOTION":15.55718972,"ECCENTRICITY":0.00118236,"INCLINATION":51.6318,"RA_OF_ASC_NODE":29.445,"ARG_OF_PERICENTER":205.4232,"MEAN_ANOMALY":154.6179,"EPHEMERIS_TYPE":0,"CLASSIFICATION_TYPE":"U","NORAD_CAT_ID":67684,"ELEMENT_SET_NO":999,"REV_AT_EPOCH":610,"BSTAR":0.00091268345,"MEAN_MOTION_DOT":0.0006426,"MEAN_MOTION_DDOT":0},{"OBJECT_NAME":"CORAL","OBJECT_ID":"1998-067YB","EPOCH":"2026-03-18T03:43:14.914272","MEAN_MOTION":15.529653,"ECCENTRICITY":0.00115872,"INCLINATION":51.6324,"RA_OF_ASC_NODE":29.6861,"ARG_OF_PERICENTER":212.5477,"MEAN_ANOMALY":147.48,"EPHEMERIS_TYPE":0,"CLASSIFICATION_TYPE":"U","NORAD_CAT_ID":67685,"ELEMENT_SET_NO":999,"REV_AT_EPOCH":610,"BSTAR":0.000565829,"MEAN_MOTION_DOT":0.00035685,"MEAN_MOTION_DDOT":0},{"OBJECT_NAME":"ISS OBJECT YC","OBJECT_ID":"1998-067YC","EPOCH":"2026-03-18T01:57:44.960832","MEAN_MOTION":15.53669122,"ECCENTRICITY":0.00085421,"INCLINATION":51.6325,"RA_OF_ASC_NODE":29.9492,"ARG_OF_PERICENTER":181.6034,"MEAN_ANOMALY":178.4931,"EPHEMERIS_TYPE":0,"CLASSIFICATION_TYPE":"U","NORAD_CAT_ID":67686,"ELEMENT_SET_NO":999,"REV_AT_EPOCH":609,"BSTAR":0.00066325202,"MEAN_MOTION_DOT":0.0004299,"MEAN_MOTION_DDOT":0},{"OBJECT_NAME":"LEOPARD","OBJECT_ID":"1998-067YD","EPOCH":"2026-03-18T06:53:16.216800","MEAN_MOTION":15.5274433,"ECCENTRICITY":0.0008223,"INCLINATION":51.632,"RA_OF_ASC_NODE":29.0693,"ARG_OF_PERICENTER":185.7311,"MEAN_ANOMALY":174.3586,"EPHEMERIS_TYPE":0,"CLASSIFICATION_TYPE":"U","NORAD_CAT_ID":67687,"ELEMENT_SET_NO":999,"REV_AT_EPOCH":604,"BSTAR":0.00053459412,"MEAN_MOTION_DOT":0.00033363,"MEAN_MOTION_DDOT":0},{"OBJECT_NAME":"ISS OBJECT YE","OBJECT_ID":"1998-067YE","EPOCH":"2026-03-18T03:36:14.572224","MEAN_MOTION":15.53349847,"ECCENTRICITY":0.00083347,"INCLINATION":51.6321,"RA_OF_ASC_NODE":29.6558,"ARG_OF_PERICENTER":182.6297,"MEAN_ANOMALY":177.4651,"EPHEMERIS_TYPE":0,"CLASSIFICATION_TYPE":"U","NORAD_CAT_ID":67688,"ELEMENT_SET_NO":999,"REV_AT_EPOCH":602,"BSTAR":0.0006226299,"MEAN_MOTION_DOT":0.0003984,"MEAN_MOTION_DDOT":0},{"OBJECT_NAME":"CREW DRAGON 12","OBJECT_ID":"2026-031A","EPOCH":"2026-03-18T03:52:30.016128","MEAN_MOTION":15.48351952,"ECCENTRICITY":0.00062422,"INCLINATION":51.6338,"RA_OF_ASC_NODE":30.4771,"ARG_OF_PERICENTER":203.4545,"MEAN_ANOMALY":156.6159,"EPHEMERIS_TYPE":0,"CLASSIFICATION_TYPE":"U","NORAD_CAT_ID":67796,"ELEMENT_SET_NO":999,"REV_AT_EPOCH":55756,"BSTAR":0.00014196061,"MEAN_MOTION_DOT":7.208e-5,"MEAN_MOTION_DDOT":0}]
